{
  "norad_id": 57877,
  "name": "STARLINK-30284",
  "history": [
    {
      "epoch": "2026-03-28T13:16:53.609664",
      "apogee_km": 484.26928298972325,
      "perigee_km": 481.79377338475297,
      "latitude_deg": 37.79810606908097,
      "longitude_deg": 20.826232959982008,
      "semi_major_axis_km": 6861.168528187238,
      "eccentricity": 0.0001804,
      "inclination_deg": 43.0028,
      "raan_deg": 142.0251,
      "arg_perigee_deg": 288.8637,
      "mean_anomaly_deg": 71.2019,
      "mean_motion_rev_day": 15.27585867
    }
  ]
}